RSP-03                  
1 65732U 98067XL  26043.64259226  .01595936  19444-2  14645-2 0  9998
2 65732  51.6117 174.7279 0009438 324.4115  35.6270 16.12100303 22966
YOTSUBA-KULOVER         
1 65941U 98067XN  26043.59216736  .00133871  00000+0  99190-3 0  9992
2 65941  51.6248 186.5540 0004383 287.5761  72.4758 15.71964307 19541
BOTAN                   
1 65942U 98067XP  26044.25019649  .00432754  00000+0  14871-2 0  9995
2 65942  51.6159 178.8870 0007794 316.3906  43.6481 15.87930291 19707
E-KAGAKU-1              
1 65943U 98067XQ  26043.78397114  .00132308  00000+0  98347-3 0  9992
2 65943  51.6261 185.5955 0004045 304.0067  56.0546 15.71895752 19579
HRC MONOBLOCK CAMERA    
1 66052U 98067XR  26043.85830872  .00046703  00000+0  57780-3 0  9994
2 66052  51.6269 190.5956 0001449   1.9873 358.1125 15.59621334 18510
HTV-X1                  
1 66174U 25241A   26044.11739808  .00007930  00000+0  15398-3 0  9998
2 66174  51.6313 193.8240 0011114  93.1734 267.0526 15.48574923   519
SZ-21 MODULE            
1 66515U 25246C   26044.22677372  .00034969  00000+0  32518-3 0  9996
2 66515  41.4764 353.7289 0002368 294.7377  65.3218 15.66676295 14234
SHENZHOU-22             
1 66645U 25272A   26044.26200910  .00019658  00000+0  24374-3 0  9992
2 66645  41.4684 356.6736 0004121  79.0888 281.0414 15.59565331267648
SOYUZ-MS 28             
1 66664U 25275A   26044.44006185  .00007804  00000+0  15165-3 0  9992
2 66664  51.6309 192.2278 0011012  93.6579 266.5669 15.48580324552573
DUPLEX                  
1 66906U 98067XS  26044.42757332  .00032648  00000+0  49143-3 0  9992
2 66906  51.6277 190.6472 0001370  77.7209 282.3935 15.54515246 11359
ISS OBJECT XT           
1 66907U 98067XT  26044.39196199  .00115848  00000+0  12543-2 0  9994
2 66907  51.6266 188.9081 0001967 292.2827  67.7958 15.62693119 11373
ISS OBJECT XU           
1 66908U 98067XU  26044.39128848  .00116938  00000+0  12641-2 0  9991
2 66908  51.6265 188.9017 0001886 298.3335  61.7469 15.62728019 11372
